[{"OBJECT_NAME":"STARLINK-4642","OBJECT_ID":"2022-107W","EPOCH":"2026-03-09T22:22:23.090880","MEAN_MOTION":15.08862358,"ECCENTRICITY":0.00011406,"INCLINATION":53.2159,"RA_OF_ASC_NODE":252.79,"ARG_OF_PERICENTER":99.7799,"MEAN_ANOMALY":260.3322,"EPHEMERIS_TYPE":0,"CLASSIFICATION_TYPE":"U","NORAD_CAT_ID":53720,"ELEMENT_SET_NO":999,"REV_AT_EPOCH":19445,"BSTAR":0.00021109397,"MEAN_MOTION_DOT":3.075e-5,"MEAN_MOTION_DDOT":0},{"OBJECT_NAME":"YUNYAO-1 48","OBJECT_ID":"2025-059F","EPOCH":"2026-03-09T22:24:05.789376","MEAN_MOTION":15.10574052,"ECCENTRICITY":0.00165064,"INCLINATION":97.6074,"RA_OF_ASC_NODE":250.9983,"ARG_OF_PERICENTER":137.6901,"MEAN_ANOMALY":222.5605,"EPHEMERIS_TYPE":0,"CLASSIFICATION_TYPE":"U","NORAD_CAT_ID":63349,"ELEMENT_SET_NO":999,"REV_AT_EPOCH":5331,"BSTAR":0.00030523847,"MEAN_MOTION_DOT":4.989e-5,"MEAN_MOTION_DDOT":0}]
